EUTELSAT 8 WEST B       
1 40875U 15039B   25239.90461429 -.00000066  00000+0  00000+0 0  9999
2 40875   0.0668   0.7378 0003693 156.2974 137.0045  1.00271413 36712
EUTELSAT 9B             
1 41310U 16005A   25239.88794860  .00000062  00000+0  00000+0 0  9998
2 41310   0.0358  70.0446 0001675 117.2888 117.6619  1.00272315 35170
EUTELSAT 65 WEST A      
1 41382U 16014A   25239.57586337 -.00000277  00000+0  00000+0 0  9990
2 41382   0.0541 356.4299 0002296 157.4691 324.2608  1.00272174 34590
EUTELSAT 117 WEST B     
1 41589U 16038B   25239.73239117 -.00000012  00000+0  00000+0 0  9991
2 41589   0.0078 275.2413 0000148 289.5378 278.0998  1.00272422 33721
EUTELSAT 172B           
1 42741U 17029B   25239.78261528 -.00000006  00000+0  00000+0 0  9992
2 42741   0.0170 154.9728 0000273 284.1761 350.8408  1.00272908 30780
EUTELSAT 7C             
1 44334U 19034B   25239.89905935  .00000048  00000+0  00000+0 0  9994
2 44334   0.0725 187.4023 0003186 314.4459 165.1760  1.00271200  3896
EUTELSAT 5 WEST B       
1 44624U 19067A   25239.74163542 -.00000043  00000+0  00000+0 0  9992
2 44624   0.1147 301.5013 0003122 216.8689  79.8078  1.00273444 21496
EUTELSAT KONNECT        
1 45027U 20005B   25239.89905935  .00000049  00000+0  00000+0 0  9995
2 45027   0.0650 100.7559 0001466  64.1152 142.3518  1.00269936 21388
